ONEWEB-0625             
1 55166U 23004AC  25357.13986119  .00000063  00000+0  12965-3 0  9996
2 55166  87.9103  40.8822 0001960  94.0047 266.1308 13.17649829144394
ONEWEB-0626             
1 55167U 23004AD  25357.12972998  .00000040  00000+0  70010-4 0  9997
2 55167  87.9100  40.8843 0001337  90.3478 269.7807 13.17650916144392
ONEWEB-0627             
1 55168U 23004AE  25357.11793427  .00000130  00000+0  30112-3 0  9993
2 55168  87.9100  40.8870 0001940 116.0593 244.0739 13.17649059144393
ONEWEB-0628             
1 55169U 23004AF  25357.06846700  .00006859  00000+0  19028-1 0  9996
2 55169  87.8944  25.6322 0002185 109.8552 250.2812 13.12398674144939
ONEWEB-0629             
1 55170U 23004AG  25357.16938624  .00000035  00000+0  56428-4 0  9994
2 55170  87.9098  40.8740 0002130  99.9035 260.2337 13.17650196144400
ONEWEB-0631             
1 55171U 23004AH  25357.06764938  .00000106  00000+0  23620-3 0  9995
2 55171  87.9170  10.4079 0001270  94.5263 265.6015 13.18687262146463
ONEWEB-0709             
1 55172U 23004AJ  25357.18767850 -.00000285  00000+0 -84095-3 0  9998
2 55172  87.8845  56.1324 0001044  80.9930 279.1316 13.11413820142809
ONEWEB-0710             
1 55173U 23004AK  25357.18374518  .00000020  00000+0  18657-4 0  9991
2 55173  87.9100  40.8657 0001773 104.2355 255.8974 13.17648463144402
ONEWEB-0711             
1 55174U 23004AL  25357.15889650  .00000575  00000+0  15865-2 0  9998
2 55174  87.8851  56.1129 0002045 124.8203 235.3118 13.11418383142762
ONEWEB-0713             
1 55175U 23004AM  25357.17751827 -.00000010  00000+0 -63314-4 0  9995
2 55175  87.8850  56.1110 0001860 114.9550 245.1772 13.11414459142755
ONEWEB-0715             
1 55176U 23004AN  25357.17243216  .00000344  00000+0  93608-3 0  9990
2 55176  87.8847  56.1126 0001099 110.4200 249.7046 13.11414008142794
ONEWEB-0716             
1 55177U 23004AP  25357.17698695  .00000021  00000+0  20253-4 0  9995
2 55177  87.9100  40.8669 0001931  91.9288 268.2065 13.17650220144405
ONEWEB-0717             
1 55178U 23004AQ  25357.16010526  .00000037  00000+0  61913-4 0  9991
2 55178  87.9107  40.8420 0001792 121.8324 238.2982 13.17651287144451
ONEWEB-0719             
1 55179U 23004AR  25357.17024604  .00000048  00000+0  89966-4 0  9995
2 55179  87.9108  40.8222 0002005  97.6977 262.4383 13.17648130144407
ONEWEB-0530             
1 55796U 23029A   25356.88015551 -.00000011  00000+0 -58710-4 0  9990
2 55796  87.9211 309.6460 0001958  95.5890 264.5466 13.20770524137879
ONEWEB-0534             
1 55797U 23029B   25357.17056497 -.00000124  00000+0 -33607-3 0  9990
2 55797  87.9208 309.5883 0001926  77.8845 282.2504 13.20769576137912
ONEWEB-0556             
1 55798U 23029C   25357.10111336 -.00000012  00000+0 -61597-4 0  9994
2 55798  87.9212 309.6024 0002792  82.3867 277.7583 13.20773130137909
