[{"OBJECT_NAME":"ONEWEB-0625","OBJECT_ID":"2023-004AC","EPOCH":"2025-12-23T03:21:24.006816","MEAN_MOTION":13.17649829,"ECCENTRICITY":0.00019609,"INCLINATION":87.9103,"RA_OF_ASC_NODE":40.8822,"ARG_OF_PERICENTER":94.0047,"MEAN_ANOMALY":266.1308,"EPHEMERIS_TYPE":0,"CLASSIFICATION_TYPE":"U","NORAD_CAT_ID":55166,"ELEMENT_SET_NO":999,"REV_AT_EPOCH":14439,"BSTAR":0.00012965039,"MEAN_MOTION_DOT":6.3e-7,"MEAN_MOTION_DDOT":0},{"OBJECT_NAME":"ONEWEB-0626","OBJECT_ID":"2023-004AD","EPOCH":"2025-12-23T03:06:48.670272","MEAN_MOTION":13.17650916,"ECCENTRICITY":0.00013377,"INCLINATION":87.91,"RA_OF_ASC_NODE":40.8843,"ARG_OF_PERICENTER":90.3478,"MEAN_ANOMALY":269.7807,"EPHEMERIS_TYPE":0,"CLASSIFICATION_TYPE":"U","NORAD_CAT_ID":55167,"ELEMENT_SET_NO":999,"REV_AT_EPOCH":14439,"BSTAR":7.0009776e-5,"MEAN_MOTION_DOT":4.0e-7,"MEAN_MOTION_DDOT":0},{"OBJECT_NAME":"ONEWEB-0627","OBJECT_ID":"2023-004AE","EPOCH":"2025-12-23T02:49:49.520928","MEAN_MOTION":13.17649059,"ECCENTRICITY":0.00019409,"INCLINATION":87.91,"RA_OF_ASC_NODE":40.887,"ARG_OF_PERICENTER":116.0593,"MEAN_ANOMALY":244.0739,"EPHEMERIS_TYPE":0,"CLASSIFICATION_TYPE":"U","NORAD_CAT_ID":55168,"ELEMENT_SET_NO":999,"REV_AT_EPOCH":14439,"BSTAR":0.00030112498,"MEAN_MOTION_DOT":1.3e-6,"MEAN_MOTION_DDOT":0},{"OBJECT_NAME":"ONEWEB-0628","OBJECT_ID":"2023-004AF","EPOCH":"2025-12-23T01:38:35.548800","MEAN_MOTION":13.12398674,"ECCENTRICITY":0.00021854,"INCLINATION":87.8944,"RA_OF_ASC_NODE":25.6322,"ARG_OF_PERICENTER":109.8552,"MEAN_ANOMALY":250.2812,"EPHEMERIS_TYPE":0,"CLASSIFICATION_TYPE":"U","NORAD_CAT_ID":55169,"ELEMENT_SET_NO":999,"REV_AT_EPOCH":14493,"BSTAR":0.019027508,"MEAN_MOTION_DOT":6.859e-5,"MEAN_MOTION_DDOT":0},{"OBJECT_NAME":"ONEWEB-0629","OBJECT_ID":"2023-004AG","EPOCH":"2025-12-23T04:03:54.971136","MEAN_MOTION":13.17650196,"ECCENTRICITY":0.00021303,"INCLINATION":87.9098,"RA_OF_ASC_NODE":40.874,"ARG_OF_PERICENTER":99.9035,"MEAN_ANOMALY":260.2337,"EPHEMERIS_TYPE":0,"CLASSIFICATION_TYPE":"U","NORAD_CAT_ID":55170,"ELEMENT_SET_NO":999,"REV_AT_EPOCH":14440,"BSTAR":5.6428206e-5,"MEAN_MOTION_DOT":3.5e-7,"MEAN_MOTION_DDOT":0},{"OBJECT_NAME":"ONEWEB-0631","OBJECT_ID":"2023-004AH","EPOCH":"2025-12-23T01:37:24.906432","MEAN_MOTION":13.18687262,"ECCENTRICITY":0.00012706,"INCLINATION":87.917,"RA_OF_ASC_NODE":10.4079,"ARG_OF_PERICENTER":94.5263,"MEAN_ANOMALY":265.6015,"EPHEMERIS_TYPE":0,"CLASSIFICATION_TYPE":"U","NORAD_CAT_ID":55171,"ELEMENT_SET_NO":999,"REV_AT_EPOCH":14646,"BSTAR":0.00023619827,"MEAN_MOTION_DOT":1.06e-6,"MEAN_MOTION_DDOT":0},{"OBJECT_NAME":"ONEWEB-0709","OBJECT_ID":"2023-004AJ","EPOCH":"2025-12-23T04:30:15.422400","MEAN_MOTION":13.1141382,"ECCENTRICITY":0.00010445,"INCLINATION":87.8845,"RA_OF_ASC_NODE":56.1324,"ARG_OF_PERICENTER":80.993,"MEAN_ANOMALY":279.1316,"EPHEMERIS_TYPE":0,"CLASSIFICATION_TYPE":"U","NORAD_CAT_ID":55172,"ELEMENT_SET_NO":999,"REV_AT_EPOCH":14280,"BSTAR":-0.0008409543,"MEAN_MOTION_DOT":-2.85e-6,"MEAN_MOTION_DDOT":0},{"OBJECT_NAME":"ONEWEB-0710","OBJECT_ID":"2023-004AK","EPOCH":"2025-12-23T04:24:35.583552","MEAN_MOTION":13.17648463,"ECCENTRICITY":0.00017735,"INCLINATION":87.91,"RA_OF_ASC_NODE":40.8657,"ARG_OF_PERICENTER":104.2355,"MEAN_ANOMALY":255.8974,"EPHEMERIS_TYPE":0,"CLASSIFICATION_TYPE":"U","NORAD_CAT_ID":55173,"ELEMENT_SET_NO":999,"REV_AT_EPOCH":14440,"BSTAR":1.8657315e-5,"MEAN_MOTION_DOT":2.0e-7,"MEAN_MOTION_DDOT":0},{"OBJECT_NAME":"ONEWEB-0711","OBJECT_ID":"2023-004AL","EPOCH":"2025-12-23T03:48:48.657600","MEAN_MOTION":13.11418383,"ECCENTRICITY":0.00020453,"INCLINATION":87.8851,"RA_OF_ASC_NODE":56.1129,"ARG_OF_PERICENTER":124.8203,"MEAN_ANOMALY":235.3118,"EPHEMERIS_TYPE":0,"CLASSIFICATION_TYPE":"U","NORAD_CAT_ID":55174,"ELEMENT_SET_NO":999,"REV_AT_EPOCH":14276,"BSTAR":0.0015865432,"MEAN_MOTION_DOT":5.75e-6,"MEAN_MOTION_DDOT":0},{"OBJECT_NAME":"ONEWEB-0713","OBJECT_ID":"2023-004AM","EPOCH":"2025-12-23T04:15:37.578528","MEAN_MOTION":13.11414459,"ECCENTRICITY":0.00018609,"INCLINATION":87.885,"RA_OF_ASC_NODE":56.111,"ARG_OF_PERICENTER":114.955,"MEAN_ANOMALY":245.1772,"EPHEMERIS_TYPE":0,"CLASSIFICATION_TYPE":"U","NORAD_CAT_ID":55175,"ELEMENT_SET_NO":999,"REV_AT_EPOCH":14275,"BSTAR":-6.3314391e-5,"MEAN_MOTION_DOT":-1.0e-7,"MEAN_MOTION_DDOT":0},{"OBJECT_NAME":"ONEWEB-0715","OBJECT_ID":"2023-004AN","EPOCH":"2025-12-23T04:08:18.138624","MEAN_MOTION":13.11414008,"ECCENTRICITY":0.00010991,"INCLINATION":87.8847,"RA_OF_ASC_NODE":56.1126,"ARG_OF_PERICENTER":110.42,"MEAN_ANOMALY":249.7046,"EPHEMERIS_TYPE":0,"CLASSIFICATION_TYPE":"U","NORAD_CAT_ID":55176,"ELEMENT_SET_NO":999,"REV_AT_EPOCH":14279,"BSTAR":0.0009360777,"MEAN_MOTION_DOT":3.44e-6,"MEAN_MOTION_DDOT":0},{"OBJECT_NAME":"ONEWEB-0716","OBJECT_ID":"2023-004AP","EPOCH":"2025-12-23T04:14:51.672480","MEAN_MOTION":13.1765022,"ECCENTRICITY":0.00019317,"INCLINATION":87.91,"RA_OF_ASC_NODE":40.8669,"ARG_OF_PERICENTER":91.9288,"MEAN_ANOMALY":268.2065,"EPHEMERIS_TYPE":0,"CLASSIFICATION_TYPE":"U","NORAD_CAT_ID":55177,"ELEMENT_SET_NO":999,"REV_AT_EPOCH":14440,"BSTAR":2.0252536e-5,"MEAN_MOTION_DOT":2.1e-7,"MEAN_MOTION_DDOT":0},{"OBJECT_NAME":"ONEWEB-0717","OBJECT_ID":"2023-004AQ","EPOCH":"2025-12-23T03:50:33.094464","MEAN_MOTION":13.17651287,"ECCENTRICITY":0.00017922,"INCLINATION":87.9107,"RA_OF_ASC_NODE":40.842,"ARG_OF_PERICENTER":121.8324,"MEAN_ANOMALY":238.2982,"EPHEMERIS_TYPE":0,"CLASSIFICATION_TYPE":"U","NORAD_CAT_ID":55178,"ELEMENT_SET_NO":999,"REV_AT_EPOCH":14445,"BSTAR":6.1913364e-5,"MEAN_MOTION_DOT":3.7e-7,"MEAN_MOTION_DDOT":0},{"OBJECT_NAME":"ONEWEB-0719","OBJECT_ID":"2023-004AR","EPOCH":"2025-12-23T04:05:09.257856","MEAN_MOTION":13.1764813,"ECCENTRICITY":0.00020058,"INCLINATION":87.9108,"RA_OF_ASC_NODE":40.8222,"ARG_OF_PERICENTER":97.6977,"MEAN_ANOMALY":262.4383,"EPHEMERIS_TYPE":0,"CLASSIFICATION_TYPE":"U","NORAD_CAT_ID":55179,"ELEMENT_SET_NO":999,"REV_AT_EPOCH":14440,"BSTAR":8.9965571e-5,"MEAN_MOTION_DOT":4.8e-7,"MEAN_MOTION_DDOT":0},{"OBJECT_NAME":"ONEWEB-0530","OBJECT_ID":"2023-029A","EPOCH":"2025-12-22T21:07:25.436064","MEAN_MOTION":13.20770524,"ECCENTRICITY":0.0001958,"INCLINATION":87.9211,"RA_OF_ASC_NODE":309.646,"ARG_OF_PERICENTER":95.589,"MEAN_ANOMALY":264.5466,"EPHEMERIS_TYPE":0,"CLASSIFICATION_TYPE":"U","NORAD_CAT_ID":55796,"ELEMENT_SET_NO":999,"REV_AT_EPOCH":13787,"BSTAR":-5.871e-5,"MEAN_MOTION_DOT":-1.1e-7,"MEAN_MOTION_DDOT":0},{"OBJECT_NAME":"ONEWEB-0534","OBJECT_ID":"2023-029B","EPOCH":"2025-12-23T04:05:36.813408","MEAN_MOTION":13.20769576,"ECCENTRICITY":0.00019262,"INCLINATION":87.9208,"RA_OF_ASC_NODE":309.5883,"ARG_OF_PERICENTER":77.8845,"MEAN_ANOMALY":282.2504,"EPHEMERIS_TYPE":0,"CLASSIFICATION_TYPE":"U","NORAD_CAT_ID":55797,"ELEMENT_SET_NO":999,"REV_AT_EPOCH":13791,"BSTAR":-0.00033607009,"MEAN_MOTION_DOT":-1.24e-6,"MEAN_MOTION_DDOT":0},{"OBJECT_NAME":"ONEWEB-0556","OBJECT_ID":"2023-029C","EPOCH":"2025-12-23T02:25:36.194304","MEAN_MOTION":13.2077313,"ECCENTRICITY":0.00027922,"INCLINATION":87.9212,"RA_OF_ASC_NODE":309.6024,"ARG_OF_PERICENTER":82.3867,"MEAN_ANOMALY":277.7583,"EPHEMERIS_TYPE":0,"CLASSIFICATION_TYPE":"U","NORAD_CAT_ID":55798,"ELEMENT_SET_NO":999,"REV_AT_EPOCH":13790,"BSTAR":-6.1596953e-5,"MEAN_MOTION_DOT":-1.2e-7,"MEAN_MOTION_DDOT":0}]
